IRIDIUM 112             
1 41925U 17003J   25023.05590450  .00000097  00000+0  27439-4 0  9996
2 41925  86.3977 301.4735 0001954  78.5787 281.5628 14.34217103420157
IRIDIUM 111             
1 41926U 17003K   25023.18275508  .00000818  00000+0  28505-3 0  9990
2 41926  86.3979 301.4798 0002090  87.2707 272.8727 14.34223747420154
IRIDIUM 113             
1 42803U 17039A   25023.51156341  .00000159  00000+0  49784-4 0  9995
2 42803  86.4017 175.1658 0001512  91.2662 268.8707 14.34217708398132
IRIDIUM 123             
1 42804U 17039B   25023.55304064  .00000011  00000+0 -31973-5 0  9997
2 42804  86.3977 206.5772 0001958  98.0345 262.1073 14.34217499396903
IRIDIUM 120             
1 42805U 17039C   25023.50522113  .00000284  00000+0  94422-4 0  9998
2 42805  86.4006 175.0172 0002291  98.1881 261.9574 14.34218741398129
IRIDIUM 115             
1 42806U 17039D   25023.46755222  .00001244  00000+0  36360-3 0  9996
2 42806  86.4543 175.0904 0002017 107.1475 252.9947 14.43292751400744
IRIDIUM 118             
1 42807U 17039E   25022.46845528  .00000250  00000+0  82062-4 0  9992
2 42807  86.3973 207.0306 0001959  90.5257 269.6163 14.34221079396744
IRIDIUM 117             
1 42808U 17039F   25023.60378079  .00000137  00000+0  41809-4 0  9990
2 42808  86.3974 206.5188 0002059 101.1950 258.9478 14.34218269396937
