<?xml version="1.0" encoding="UTF-8"?>
<ndm xmlns:xsi="http://www.w3.org/2001/XMLSchema-instance" xsi:noNamespaceSchemaLocation="https://sanaregistry.org/r/ndmxml_unqualified/ndmxml-2.0.0-master-2.0.xsd">
<omm id="CCSDS_OMM_VERS" version="2.0">
<header><CREATION_DATE/><ORIGINATOR/></header><body><segment><metadata><OBJECT_NAME>IRIDIUM 112</OBJECT_NAME><OBJECT_ID>2017-003J</OBJECT_ID><CENTER_NAME>EARTH</CENTER_NAME><REF_FRAME>TEME</REF_FRAME><TIME_SYSTEM>UTC</TIME_SYSTEM><MEAN_ELEMENT_THEORY>SGP4</MEAN_ELEMENT_THEORY></metadata><data><meanElements><EPOCH>2025-01-23T01:20:30.148800</EPOCH><MEAN_MOTION>14.34217103</MEAN_MOTION><ECCENTRICITY>.0001954</ECCENTRICITY><INCLINATION>86.3977</INCLINATION><RA_OF_ASC_NODE>301.4735</RA_OF_ASC_NODE><ARG_OF_PERICENTER>78.5787</ARG_OF_PERICENTER><MEAN_ANOMALY>281.5628</MEAN_ANOMALY></meanElements><tleParameters><EPHEMERIS_TYPE>0</EPHEMERIS_TYPE><CLASSIFICATION_TYPE>U</CLASSIFICATION_TYPE><NORAD_CAT_ID>41925</NORAD_CAT_ID><ELEMENT_SET_NO>999</ELEMENT_SET_NO><REV_AT_EPOCH>42015</REV_AT_EPOCH><BSTAR>.27439E-4</BSTAR><MEAN_MOTION_DOT>.97E-6</MEAN_MOTION_DOT><MEAN_MOTION_DDOT>0</MEAN_MOTION_DDOT></tleParameters></data></segment></body></omm>
<omm id="CCSDS_OMM_VERS" version="2.0">
<header><CREATION_DATE/><ORIGINATOR/></header><body><segment><metadata><OBJECT_NAME>IRIDIUM 111</OBJECT_NAME><OBJECT_ID>2017-003K</OBJECT_ID><CENTER_NAME>EARTH</CENTER_NAME><REF_FRAME>TEME</REF_FRAME><TIME_SYSTEM>UTC</TIME_SYSTEM><MEAN_ELEMENT_THEORY>SGP4</MEAN_ELEMENT_THEORY></metadata><data><meanElements><EPOCH>2025-01-23T04:23:10.038912</EPOCH><MEAN_MOTION>14.34223747</MEAN_MOTION><ECCENTRICITY>.000209</ECCENTRICITY><INCLINATION>86.3979</INCLINATION><RA_OF_ASC_NODE>301.4798</RA_OF_ASC_NODE><ARG_OF_PERICENTER>87.2707</ARG_OF_PERICENTER><MEAN_ANOMALY>272.8727</MEAN_ANOMALY></meanElements><tleParameters><EPHEMERIS_TYPE>0</EPHEMERIS_TYPE><CLASSIFICATION_TYPE>U</CLASSIFICATION_TYPE><NORAD_CAT_ID>41926</NORAD_CAT_ID><ELEMENT_SET_NO>999</ELEMENT_SET_NO><REV_AT_EPOCH>42015</REV_AT_EPOCH><BSTAR>.28505E-3</BSTAR><MEAN_MOTION_DOT>.818E-5</MEAN_MOTION_DOT><MEAN_MOTION_DDOT>0</MEAN_MOTION_DDOT></tleParameters></data></segment></body></omm>
<omm id="CCSDS_OMM_VERS" version="2.0">
<header><CREATION_DATE/><ORIGINATOR/></header><body><segment><metadata><OBJECT_NAME>IRIDIUM 113</OBJECT_NAME><OBJECT_ID>2017-039A</OBJECT_ID><CENTER_NAME>EARTH</CENTER_NAME><REF_FRAME>TEME</REF_FRAME><TIME_SYSTEM>UTC</TIME_SYSTEM><MEAN_ELEMENT_THEORY>SGP4</MEAN_ELEMENT_THEORY></metadata><data><meanElements><EPOCH>2025-01-23T12:16:39.078624</EPOCH><MEAN_MOTION>14.34217708</MEAN_MOTION><ECCENTRICITY>.0001512</ECCENTRICITY><INCLINATION>86.4017</INCLINATION><RA_OF_ASC_NODE>175.1658</RA_OF_ASC_NODE><ARG_OF_PERICENTER>91.2662</ARG_OF_PERICENTER><MEAN_ANOMALY>268.8707</MEAN_ANOMALY></meanElements><tleParameters><EPHEMERIS_TYPE>0</EPHEMERIS_TYPE><CLASSIFICATION_TYPE>U</CLASSIFICATION_TYPE><NORAD_CAT_ID>42803</NORAD_CAT_ID><ELEMENT_SET_NO>999</ELEMENT_SET_NO><REV_AT_EPOCH>39813</REV_AT_EPOCH><BSTAR>.49784E-4</BSTAR><MEAN_MOTION_DOT>.159E-5</MEAN_MOTION_DOT><MEAN_MOTION_DDOT>0</MEAN_MOTION_DDOT></tleParameters></data></segment></body></omm>
<omm id="CCSDS_OMM_VERS" version="2.0">
<header><CREATION_DATE/><ORIGINATOR/></header><body><segment><metadata><OBJECT_NAME>IRIDIUM 123</OBJECT_NAME><OBJECT_ID>2017-039B</OBJECT_ID><CENTER_NAME>EARTH</CENTER_NAME><REF_FRAME>TEME</REF_FRAME><TIME_SYSTEM>UTC</TIME_SYSTEM><MEAN_ELEMENT_THEORY>SGP4</MEAN_ELEMENT_THEORY></metadata><data><meanElements><EPOCH>2025-01-23T13:16:22.711296</EPOCH><MEAN_MOTION>14.34217499</MEAN_MOTION><ECCENTRICITY>.0001958</ECCENTRICITY><INCLINATION>86.3977</INCLINATION><RA_OF_ASC_NODE>206.5772</RA_OF_ASC_NODE><ARG_OF_PERICENTER>98.0345</ARG_OF_PERICENTER><MEAN_ANOMALY>262.1073</MEAN_ANOMALY></meanElements><tleParameters><EPHEMERIS_TYPE>0</EPHEMERIS_TYPE><CLASSIFICATION_TYPE>U</CLASSIFICATION_TYPE><NORAD_CAT_ID>42804</NORAD_CAT_ID><ELEMENT_SET_NO>999</ELEMENT_SET_NO><REV_AT_EPOCH>39690</REV_AT_EPOCH><BSTAR>-.31973E-5</BSTAR><MEAN_MOTION_DOT>.11E-6</MEAN_MOTION_DOT><MEAN_MOTION_DDOT>0</MEAN_MOTION_DDOT></tleParameters></data></segment></body></omm>
<omm id="CCSDS_OMM_VERS" version="2.0">
<header><CREATION_DATE/><ORIGINATOR/></header><body><segment><metadata><OBJECT_NAME>IRIDIUM 120</OBJECT_NAME><OBJECT_ID>2017-039C</OBJECT_ID><CENTER_NAME>EARTH</CENTER_NAME><REF_FRAME>TEME</REF_FRAME><TIME_SYSTEM>UTC</TIME_SYSTEM><MEAN_ELEMENT_THEORY>SGP4</MEAN_ELEMENT_THEORY></metadata><data><meanElements><EPOCH>2025-01-23T12:07:31.105632</EPOCH><MEAN_MOTION>14.34218741</MEAN_MOTION><ECCENTRICITY>.0002291</ECCENTRICITY><INCLINATION>86.4006</INCLINATION><RA_OF_ASC_NODE>175.0172</RA_OF_ASC_NODE><ARG_OF_PERICENTER>98.1881</ARG_OF_PERICENTER><MEAN_ANOMALY>261.9574</MEAN_ANOMALY></meanElements><tleParameters><EPHEMERIS_TYPE>0</EPHEMERIS_TYPE><CLASSIFICATION_TYPE>U</CLASSIFICATION_TYPE><NORAD_CAT_ID>42805</NORAD_CAT_ID><ELEMENT_SET_NO>999</ELEMENT_SET_NO><REV_AT_EPOCH>39812</REV_AT_EPOCH><BSTAR>.94422E-4</BSTAR><MEAN_MOTION_DOT>.284E-5</MEAN_MOTION_DOT><MEAN_MOTION_DDOT>0</MEAN_MOTION_DDOT></tleParameters></data></segment></body></omm>
<omm id="CCSDS_OMM_VERS" version="2.0">
<header><CREATION_DATE/><ORIGINATOR/></header><body><segment><metadata><OBJECT_NAME>IRIDIUM 115</OBJECT_NAME><OBJECT_ID>2017-039D</OBJECT_ID><CENTER_NAME>EARTH</CENTER_NAME><REF_FRAME>TEME</REF_FRAME><TIME_SYSTEM>UTC</TIME_SYSTEM><MEAN_ELEMENT_THEORY>SGP4</MEAN_ELEMENT_THEORY></metadata><data><meanElements><EPOCH>2025-01-23T11:13:16.511808</EPOCH><MEAN_MOTION>14.43292751</MEAN_MOTION><ECCENTRICITY>.0002017</ECCENTRICITY><INCLINATION>86.4543</INCLINATION><RA_OF_ASC_NODE>175.0904</RA_OF_ASC_NODE><ARG_OF_PERICENTER>107.1475</ARG_OF_PERICENTER><MEAN_ANOMALY>252.9947</MEAN_ANOMALY></meanElements><tleParameters><EPHEMERIS_TYPE>0</EPHEMERIS_TYPE><CLASSIFICATION_TYPE>U</CLASSIFICATION_TYPE><NORAD_CAT_ID>42806</NORAD_CAT_ID><ELEMENT_SET_NO>999</ELEMENT_SET_NO><REV_AT_EPOCH>40074</REV_AT_EPOCH><BSTAR>.3636E-3</BSTAR><MEAN_MOTION_DOT>.1244E-4</MEAN_MOTION_DOT><MEAN_MOTION_DDOT>0</MEAN_MOTION_DDOT></tleParameters></data></segment></body></omm>
<omm id="CCSDS_OMM_VERS" version="2.0">
<header><CREATION_DATE/><ORIGINATOR/></header><body><segment><metadata><OBJECT_NAME>IRIDIUM 118</OBJECT_NAME><OBJECT_ID>2017-039E</OBJECT_ID><CENTER_NAME>EARTH</CENTER_NAME><REF_FRAME>TEME</REF_FRAME><TIME_SYSTEM>UTC</TIME_SYSTEM><MEAN_ELEMENT_THEORY>SGP4</MEAN_ELEMENT_THEORY></metadata><data><meanElements><EPOCH>2025-01-22T11:14:34.536192</EPOCH><MEAN_MOTION>14.34221079</MEAN_MOTION><ECCENTRICITY>.0001959</ECCENTRICITY><INCLINATION>86.3973</INCLINATION><RA_OF_ASC_NODE>207.0306</RA_OF_ASC_NODE><ARG_OF_PERICENTER>90.5257</ARG_OF_PERICENTER><MEAN_ANOMALY>269.6163</MEAN_ANOMALY></meanElements><tleParameters><EPHEMERIS_TYPE>0</EPHEMERIS_TYPE><CLASSIFICATION_TYPE>U</CLASSIFICATION_TYPE><NORAD_CAT_ID>42807</NORAD_CAT_ID><ELEMENT_SET_NO>999</ELEMENT_SET_NO><REV_AT_EPOCH>39674</REV_AT_EPOCH><BSTAR>.82062E-4</BSTAR><MEAN_MOTION_DOT>.25E-5</MEAN_MOTION_DOT><MEAN_MOTION_DDOT>0</MEAN_MOTION_DDOT></tleParameters></data></segment></body></omm>
<omm id="CCSDS_OMM_VERS" version="2.0">
<header><CREATION_DATE/><ORIGINATOR/></header><body><segment><metadata><OBJECT_NAME>IRIDIUM 117</OBJECT_NAME><OBJECT_ID>2017-039F</OBJECT_ID><CENTER_NAME>EARTH</CENTER_NAME><REF_FRAME>TEME</REF_FRAME><TIME_SYSTEM>UTC</TIME_SYSTEM><MEAN_ELEMENT_THEORY>SGP4</MEAN_ELEMENT_THEORY></metadata><data><meanElements><EPOCH>2025-01-23T14:29:26.660256</EPOCH><MEAN_MOTION>14.34218269</MEAN_MOTION><ECCENTRICITY>.0002059</ECCENTRICITY><INCLINATION>86.3974</INCLINATION><RA_OF_ASC_NODE>206.5188</RA_OF_ASC_NODE><ARG_OF_PERICENTER>101.1950</ARG_OF_PERICENTER><MEAN_ANOMALY>258.9478</MEAN_ANOMALY></meanElements><tleParameters><EPHEMERIS_TYPE>0</EPHEMERIS_TYPE><CLASSIFICATION_TYPE>U</CLASSIFICATION_TYPE><NORAD_CAT_ID>42808</NORAD_CAT_ID><ELEMENT_SET_NO>999</ELEMENT_SET_NO><REV_AT_EPOCH>39693</REV_AT_EPOCH><BSTAR>.41809E-4</BSTAR><MEAN_MOTION_DOT>.137E-5</MEAN_MOTION_DOT><MEAN_MOTION_DDOT>0</MEAN_MOTION_DDOT></tleParameters></data></segment></body></omm>

</ndm>
